{
  "type": "FeatureCollection",
  "features": [
    {
      "type": "Feature",
      "properties": {
        "norad_id": 66420,
        "name": "HULIANWANG DIGUI 13J",
        "group": "last-30-days",
        "lat": 49.949216954569124,
        "lon": 28.12933872705047,
        "alt_km": 809.9687058353802,
        "timestamp": "2025-12-03T10:52:56.221253+00:00",
        "meta_object_name": "HULIANWANG DIGUI 13J",
        "meta_object_id": "2025-258J",
        "meta_epoch": "2025-12-02T14:15:06.892128",
        "meta_mean_motion": 14.23472617,
        "meta_eccentricity": 0.00114332,
        "meta_inclination": 50.0026,
        "meta_ra_of_asc_node": 304.6152,
        "meta_arg_of_pericenter": 331.2582,
        "meta_mean_anomaly": 28.77,
        "meta_ephemeris_type": 0,
        "meta_classification_type": "U",
        "meta_norad_cat_id": 66420,
        "meta_element_set_no": 999,
        "meta_rev_at_epoch": 320,
        "meta_bstar": 0.00013743568,
        "meta_mean_motion_dot": 1.55e-06,
        "meta_mean_motion_ddot": 0,
        "tle_line1": "1 66420U 25258J   25336.59382977  .00000155  00000+0  13744-3 0  9991",
        "tle_line2": "2 66420  50.0026 304.6152 0011433 331.2582  28.7700 14.23472617  3206"
      },
      "geometry": {
        "type": "Point",
        "coordinates": [
          28.12933872705047,
          49.949216954569124
        ]
      }
    },
    {
      "type": "Feature",
      "properties": {
        "norad_id": 66421,
        "name": "CZ-12 R/B",
        "group": "last-30-days",
        "lat": 49.97650641472068,
        "lon": 28.73809413038586,
        "alt_km": 770.5260663077579,
        "timestamp": "2025-12-03T10:52:56.221264+00:00",
        "meta_object_name": "CZ-12 R/B",
        "meta_object_id": "2025-258K",
        "meta_epoch": "2025-12-02T16:10:10.673760",
        "meta_mean_motion": 14.42315918,
        "meta_eccentricity": 0.00645723,
        "meta_inclination": 49.9959,
        "meta_ra_of_asc_node": 301.6261,
        "meta_arg_of_pericenter": 213.2283,
        "meta_mean_anomaly": 146.4576,
        "meta_ephemeris_type": 0,
        "meta_classification_type": "U",
        "meta_norad_cat_id": 66421,
        "meta_element_set_no": 999,
        "meta_rev_at_epoch": 326,
        "meta_bstar": 2.8251275e-05,
        "meta_mean_motion_dot": -7.5e-07,
        "meta_mean_motion_ddot": 0,
        "tle_line1": "1 66421U 25258K   25336.67373465 -.00000075  00000+0  28251-4 0  9995",
        "tle_line2": "2 66421  49.9959 301.6261 0064572 213.2283 146.4576 14.42315918  3262"
      },
      "geometry": {
        "type": "Point",
        "coordinates": [
          28.73809413038586,
          49.97650641472068
        ]
      }
    },
    {
      "type": "Feature",
      "properties": {
        "norad_id": 66422,
        "name": "STARLINK-35617",
        "group": "last-30-days",
        "lat": -10.617214114120072,
        "lon": -66.7328753103455,
        "alt_km": 423.92073206154146,
        "timestamp": "2025-12-03T10:52:56.221280+00:00",
        "meta_object_name": "STARLINK-35617",
        "meta_object_id": "2025-259A",
        "meta_epoch": "2025-12-03T04:00:01.998720",
        "meta_mean_motion": 15.49140476,
        "meta_eccentricity": 0.0001507,
        "meta_inclination": 43.0003,
        "meta_ra_of_asc_node": 103.3344,
        "meta_arg_of_pericenter": 274.9287,
        "meta_mean_anomaly": 120.3362,
        "meta_ephemeris_type": 0,
        "meta_classification_type": "U",
        "meta_norad_cat_id": 66422,
        "meta_element_set_no": 999,
        "meta_rev_at_epoch": 474,
        "meta_bstar": -0.041943,
        "meta_mean_motion_dot": -0.02078226,
        "meta_mean_motion_ddot": 0,
        "tle_line1": "1 66422U 25259A   25337.16668980 -.02078226  00000+0 -41943-1 0  9997",
        "tle_line2": "2 66422  43.0003 103.3344 0001507 274.9287 120.3362 15.49140476  4745"
      },
      "geometry": {
        "type": "Point",
        "coordinates": [
          -66.7328753103455,
          -10.617214114120072
        ]
      }
    },
    {
      "type": "Feature",
      "properties": {
        "norad_id": 66423,
        "name": "STARLINK-35618",
        "group": "last-30-days",
        "lat": -13.356340587772161,
        "lon": -63.58690371872747,
        "alt_km": 420.3855718701925,
        "timestamp": "2025-12-03T10:52:56.221292+00:00",
        "meta_object_name": "STARLINK-35618",
        "meta_object_id": "2025-259B",
        "meta_epoch": "2025-12-03T04:00:01.998720",
        "meta_mean_motion": 15.5046648,
        "meta_eccentricity": 0.0001908,
        "meta_inclination": 43,
        "meta_ra_of_asc_node": 103.3274,
        "meta_arg_of_pericenter": 282.4447,
        "meta_mean_anomaly": 115.5819,
        "meta_ephemeris_type": 0,
        "meta_classification_type": "U",
        "meta_norad_cat_id": 66423,
        "meta_element_set_no": 999,
        "meta_rev_at_epoch": 474,
        "meta_bstar": -0.040077,
        "meta_mean_motion_dot": -0.02082016,
        "meta_mean_motion_ddot": 0,
        "tle_line1": "1 66423U 25259B   25337.16668980 -.02082016  00000+0 -40077-1 0  9997",
        "tle_line2": "2 66423  43.0000 103.3274 0001908 282.4447 115.5819 15.50466480  4743"
      },
      "geometry": {
        "type": "Point",
        "coordinates": [
          -63.58690371872747,
          -13.356340587772161
        ]
      }
    },
    {
      "type": "Feature",
      "properties": {
        "norad_id": 66424,
        "name": "STARLINK-35588",
        "group": "last-30-days",
        "lat": -15.119181412369652,
        "lon": -61.49958346354243,
        "alt_km": 417.01981680590325,
        "timestamp": "2025-12-03T10:52:56.221304+00:00",
        "meta_object_name": "STARLINK-35588",
        "meta_object_id": "2025-259C",
        "meta_epoch": "2025-12-03T04:00:01.998720",
        "meta_mean_motion": 15.50885796,
        "meta_eccentricity": 0.0001222,
        "meta_inclination": 43.0001,
        "meta_ra_of_asc_node": 103.3238,
        "meta_arg_of_pericenter": 276.7123,
        "meta_mean_anomaly": 123.161,
        "meta_ephemeris_type": 0,
        "meta_classification_type": "U",
        "meta_norad_cat_id": 66424,
        "meta_element_set_no": 999,
        "meta_rev_at_epoch": 474,
        "meta_bstar": -0.016207,
        "meta_mean_motion_dot": -0.00875099,
        "meta_mean_motion_ddot": 0,
        "tle_line1": "1 66424U 25259C   25337.16668980 -.00875099  00000+0 -16207-1 0  9995",
        "tle_line2": "2 66424  43.0001 103.3238 0001222 276.7123 123.1610 15.50885796  4740"
      },
      "geometry": {
        "type": "Point",
        "coordinates": [
          -61.49958346354243,
          -15.119181412369652
        ]
      }
    },
    {
      "type": "Feature",
      "properties": {
        "norad_id": 66425,
        "name": "STARLINK-35555",
        "group": "last-30-days",
        "lat": -16.38406090170137,
        "lon": -59.968667482334034,
        "alt_km": 416.20023370720446,
        "timestamp": "2025-12-03T10:52:56.221315+00:00",
        "meta_object_name": "STARLINK-35555",
        "meta_object_id": "2025-259D",
        "meta_epoch": "2025-12-03T04:00:01.998720",
        "meta_mean_motion": 15.50560439,
        "meta_eccentricity": 0.0001672,
        "meta_inclination": 43,
        "meta_ra_of_asc_node": 103.3169,
        "meta_arg_of_pericenter": 269.5427,
        "meta_mean_anomaly": 132.3238,
        "meta_ephemeris_type": 0,
        "meta_classification_type": "U",
        "meta_norad_cat_id": 66425,
        "meta_element_set_no": 999,
        "meta_rev_at_epoch": 474,
        "meta_bstar": 0.0007429,
        "meta_mean_motion_dot": 0.00043454,
        "meta_mean_motion_ddot": 0,
        "tle_line1": "1 66425U 25259D   25337.16668980  .00043454  00000+0  74290-3 0  9994",
        "tle_line2": "2 66425  43.0000 103.3169 0001672 269.5427 132.3238 15.50560439  4741"
      },
      "geometry": {
        "type": "Point",
        "coordinates": [
          -59.968667482334034,
          -16.38406090170137
        ]
      }
    },
    {
      "type": "Feature",
      "properties": {
        "norad_id": 66426,
        "name": "STARLINK-35589",
        "group": "last-30-days",
        "lat": -17.62530807236788,
        "lon": -58.429247672371595,
        "alt_km": 416.3789514865466,
        "timestamp": "2025-12-03T10:52:56.221325+00:00",
        "meta_object_name": "STARLINK-35589",
        "meta_object_id": "2025-259E",
        "meta_epoch": "2025-12-03T04:00:01.998720",
        "meta_mean_motion": 15.50674964,
        "meta_eccentricity": 0.0001672,
        "meta_inclination": 43.0002,
        "meta_ra_of_asc_node": 103.3144,
        "meta_arg_of_pericenter": 272.0842,
        "meta_mean_anomaly": 131.6621,
        "meta_ephemeris_type": 0,
        "meta_classification_type": "U",
        "meta_norad_cat_id": 66426,
        "meta_element_set_no": 999,
        "meta_rev_at_epoch": 474,
        "meta_bstar": -0.0032657,
        "meta_mean_motion_dot": -0.00188045,
        "meta_mean_motion_ddot": 0,
        "tle_line1": "1 66426U 25259E   25337.16668980 -.00188045  00000+0 -32657-2 0  9993",
        "tle_line2": "2 66426  43.0002 103.3144 0001672 272.0842 131.6621 15.50674964  4744"
      },
      "geometry": {
        "type": "Point",
        "coordinates": [
          -58.429247672371595,
          -17.62530807236788
        ]
      }
    }
  ]
}